[
  {
    "OBJECT_NAME": "STARLINK-3143",
    "OBJECT_ID": "21115Q",
    "EPOCH": "2025-11-11T06:15:45.451872",
    "MEAN_MOTION": 15.08835374,
    "ECCENTRICITY": 0.000141,
    "INCLINATION": 53.2183,
    "RA_OF_ASC_NODE": 320.9771,
    "ARG_OF_PERICENTER": 95.053,
    "MEAN_ANOMALY": 265.0623,
    "EPHEMERIS_TYPE": 0,
    "CLASSIFICATION_TYPE": "U",
    "NORAD_CAT_ID": 49738,
    "ELEMENT_SET_NO": 999,
    "REV_AT_EPOCH": 21765,
    "BSTAR": 7.6127e-05,
    "MEAN_MOTION_DOT": 9.24e-06,
    "MEAN_MOTION_DDOT": 0.0,
    "TLE_LINE1": "1 49738U 21115Q   25315.26094273  .00000924  00000+0  76127-4 0  9991",
    "TLE_LINE2": "2 49738  53.2183 320.9771 0001410  95.0530 265.0623 15.08835374217651",
    "COMMENT": "Grouped by shell and plane from TLE"
  },
  {
    "OBJECT_NAME": "STARLINK-3226",
    "OBJECT_ID": "21115S",
    "EPOCH": "2025-11-11T07:35:12.070752",
    "MEAN_MOTION": 15.08839052,
    "ECCENTRICITY": 0.000146,
    "INCLINATION": 53.2173,
    "RA_OF_ASC_NODE": 320.4926,
    "ARG_OF_PERICENTER": 103.2707,
    "MEAN_ANOMALY": 256.8448,
    "EPHEMERIS_TYPE": 0,
    "CLASSIFICATION_TYPE": "U",
    "NORAD_CAT_ID": 49740,
    "ELEMENT_SET_NO": 999,
    "REV_AT_EPOCH": 21766,
    "BSTAR": 0.00017288,
    "MEAN_MOTION_DOT": 2.464e-05,
    "MEAN_MOTION_DDOT": 0.0,
    "TLE_LINE1": "1 49740U 21115S   25315.31611193  .00002464  00000+0  17288-3 0  9999",
    "TLE_LINE2": "2 49740  53.2173 320.4926 0001460 103.2707 256.8448 15.08839052217664",
    "COMMENT": "Grouped by shell and plane from TLE"
  },
  {
    "OBJECT_NAME": "STARLINK-3244",
    "OBJECT_ID": "21115T",
    "EPOCH": "2025-11-11T07:29:54.129120",
    "MEAN_MOTION": 15.08852334,
    "ECCENTRICITY": 0.0001691,
    "INCLINATION": 53.218,
    "RA_OF_ASC_NODE": 320.5497,
    "ARG_OF_PERICENTER": 81.7735,
    "MEAN_ANOMALY": 278.3449,
    "EPHEMERIS_TYPE": 0,
    "CLASSIFICATION_TYPE": "U",
    "NORAD_CAT_ID": 49741,
    "ELEMENT_SET_NO": 999,
    "REV_AT_EPOCH": 21766,
    "BSTAR": 5.0119e-06,
    "MEAN_MOTION_DOT": -2.08e-06,
    "MEAN_MOTION_DDOT": 0.0,
    "TLE_LINE1": "1 49741U 21115T   25315.31243205 -.00000208  00000+0  50119-5 0  9992",
    "TLE_LINE2": "2 49741  53.2180 320.5497 0001691  81.7735 278.3449 15.08852334217662",
    "COMMENT": "Grouped by shell and plane from TLE"
  },
  {
    "OBJECT_NAME": "STARLINK-3202",
    "OBJECT_ID": "21115U",
    "EPOCH": "2025-11-11T06:14:20.730624",
    "MEAN_MOTION": 15.08840298,
    "ECCENTRICITY": 0.0001518,
    "INCLINATION": 53.218,
    "RA_OF_ASC_NODE": 320.7731,
    "ARG_OF_PERICENTER": 93.0014,
    "MEAN_ANOMALY": 267.1152,
    "EPHEMERIS_TYPE": 0,
    "CLASSIFICATION_TYPE": "U",
    "NORAD_CAT_ID": 49742,
    "ELEMENT_SET_NO": 999,
    "REV_AT_EPOCH": 21765,
    "BSTAR": 0.0,
    "MEAN_MOTION_DOT": -1.676e-05,
    "MEAN_MOTION_DDOT": 0.0,
    "TLE_LINE1": "1 49742U 21115U   25315.25996216 -.00001676  00000+0 -87225-4 0  9991",
    "TLE_LINE2": "2 49742  53.2180 320.7731 0001518  93.0014 267.1152 15.08840298217652",
    "COMMENT": "Grouped by shell and plane from TLE"
  },
  {
    "OBJECT_NAME": "STARLINK-3239",
    "OBJECT_ID": "21115V",
    "EPOCH": "2025-11-11T07:24:35.658720",
    "MEAN_MOTION": 15.08841805,
    "ECCENTRICITY": 0.0001336,
    "INCLINATION": 53.2183,
    "RA_OF_ASC_NODE": 320.4872,
    "ARG_OF_PERICENTER": 84.2956,
    "MEAN_ANOMALY": 275.8188,
    "EPHEMERIS_TYPE": 0,
    "CLASSIFICATION_TYPE": "U",
    "NORAD_CAT_ID": 49743,
    "ELEMENT_SET_NO": 999,
    "REV_AT_EPOCH": 21766,
    "BSTAR": 0.0001373,
    "MEAN_MOTION_DOT": 1.898e-05,
    "MEAN_MOTION_DDOT": 0.0,
    "TLE_LINE1": "1 49743U 21115V   25315.30874605  .00001898  00000+0  13730-3 0  9998",
    "TLE_LINE2": "2 49743  53.2183 320.4872 0001336  84.2956 275.8188 15.08841805217665",
    "COMMENT": "Grouped by shell and plane from TLE"
  },
  {
    "OBJECT_NAME": "STARLINK-3231",
    "OBJECT_ID": "21115W",
    "EPOCH": "2025-11-11T06:10:25.883328",
    "MEAN_MOTION": 15.08817744,
    "ECCENTRICITY": 0.0001394,
    "INCLINATION": 53.2179,
    "RA_OF_ASC_NODE": 320.6776,
    "ARG_OF_PERICENTER": 91.9934,
    "MEAN_ANOMALY": 268.1218,
    "EPHEMERIS_TYPE": 0,
    "CLASSIFICATION_TYPE": "U",
    "NORAD_CAT_ID": 49744,
    "ELEMENT_SET_NO": 999,
    "REV_AT_EPOCH": 21765,
    "BSTAR": 0.0,
    "MEAN_MOTION_DOT": -2.372e-05,
    "MEAN_MOTION_DDOT": 0.0,
    "TLE_LINE1": "1 49744U 21115W   25315.25724402 -.00002372  00000+0 -13105-3 0  9998",
    "TLE_LINE2": "2 49744  53.2179 320.6776 0001394  91.9934 268.1218 15.08817744217654",
    "COMMENT": "Grouped by shell and plane from TLE"
  },
  {
    "OBJECT_NAME": "STARLINK-3241",
    "OBJECT_ID": "21115X",
    "EPOCH": "2025-11-11T07:40:29.677152",
    "MEAN_MOTION": 15.08841304,
    "ECCENTRICITY": 7.75e-05,
    "INCLINATION": 53.2178,
    "RA_OF_ASC_NODE": 320.4755,
    "ARG_OF_PERICENTER": 94.5895,
    "MEAN_ANOMALY": 265.5186,
    "EPHEMERIS_TYPE": 0,
    "CLASSIFICATION_TYPE": "U",
    "NORAD_CAT_ID": 49745,
    "ELEMENT_SET_NO": 999,
    "REV_AT_EPOCH": 21766,
    "BSTAR": 0.00022616000000000002,
    "MEAN_MOTION_DOT": 3.314e-05,
    "MEAN_MOTION_DDOT": 0.0,
    "TLE_LINE1": "1 49745U 21115X   25315.31978793  .00003314  00000+0  22616-3 0  9992",
    "TLE_LINE2": "2 49745  53.2178 320.4755 0000775  94.5895 265.5186 15.08841304217661",
    "COMMENT": "Grouped by shell and plane from TLE"
  },
  {
    "OBJECT_NAME": "STARLINK-3233",
    "OBJECT_ID": "21115Y",
    "EPOCH": "2025-11-11T06:35:32.504064",
    "MEAN_MOTION": 15.08844923,
    "ECCENTRICITY": 0.0001372,
    "INCLINATION": 53.2168,
    "RA_OF_ASC_NODE": 320.7044,
    "ARG_OF_PERICENTER": 89.9964,
    "MEAN_ANOMALY": 270.1185,
    "EPHEMERIS_TYPE": 0,
    "CLASSIFICATION_TYPE": "U",
    "NORAD_CAT_ID": 49746,
    "ELEMENT_SET_NO": 999,
    "REV_AT_EPOCH": 21765,
    "BSTAR": 0.00025975,
    "MEAN_MOTION_DOT": 3.849e-05,
    "MEAN_MOTION_DDOT": 0.0,
    "TLE_LINE1": "1 49746U 21115Y   25315.27468176  .00003849  00000+0  25975-3 0  9991",
    "TLE_LINE2": "2 49746  53.2168 320.7044 0001372  89.9964 270.1185 15.08844923217654",
    "COMMENT": "Grouped by shell and plane from TLE"
  },
  {
    "OBJECT_NAME": "STARLINK-3247",
    "OBJECT_ID": "21115Z",
    "EPOCH": "2025-11-11T06:19:38.363808",
    "MEAN_MOTION": 15.08842922,
    "ECCENTRICITY": 0.0001671,
    "INCLINATION": 53.2176,
    "RA_OF_ASC_NODE": 320.7566,
    "ARG_OF_PERICENTER": 92.886,
    "MEAN_ANOMALY": 267.2323,
    "EPHEMERIS_TYPE": 0,
    "CLASSIFICATION_TYPE": "U",
    "NORAD_CAT_ID": 49747,
    "ELEMENT_SET_NO": 999,
    "REV_AT_EPOCH": 21765,
    "BSTAR": 0.0001663,
    "MEAN_MOTION_DOT": 2.36e-05,
    "MEAN_MOTION_DDOT": 0.0,
    "TLE_LINE1": "1 49747U 21115Z   25315.26363847  .00002360  00000+0  16630-3 0  9995",
    "TLE_LINE2": "2 49747  53.2176 320.7566 0001671  92.8860 267.2323 15.08842922217651",
    "COMMENT": "Grouped by shell and plane from TLE"
  },
  {
    "OBJECT_NAME": "STARLINK-3248",
    "OBJECT_ID": "21115AA",
    "EPOCH": "2025-11-11T07:23:08.494080",
    "MEAN_MOTION": 15.08844507,
    "ECCENTRICITY": 0.0001373,
    "INCLINATION": 53.2178,
    "RA_OF_ASC_NODE": 320.134,
    "ARG_OF_PERICENTER": 87.124,
    "MEAN_ANOMALY": 272.9909,
    "EPHEMERIS_TYPE": 0,
    "CLASSIFICATION_TYPE": "U",
    "NORAD_CAT_ID": 49748,
    "ELEMENT_SET_NO": 999,
    "REV_AT_EPOCH": 21767,
    "BSTAR": 9.7934e-05,
    "MEAN_MOTION_DOT": 1.271e-05,
    "MEAN_MOTION_DDOT": 0.0,
    "TLE_LINE1": "1 49748U 21115AA  25315.30773720  .00001271  00000+0  97934-4 0  9993",
    "TLE_LINE2": "2 49748  53.2178 320.1340 0001373  87.1240 272.9909 15.08844507217672",
    "COMMENT": "Grouped by shell and plane from TLE"
  },
  {
    "OBJECT_NAME": "STARLINK-3250",
    "OBJECT_ID": "21115AB",
    "EPOCH": "2025-11-11T07:03:26.494560",
    "MEAN_MOTION": 15.08847878,
    "ECCENTRICITY": 0.0001552,
    "INCLINATION": 53.2174,
    "RA_OF_ASC_NODE": 320.8593,
    "ARG_OF_PERICENTER": 85.0614,
    "MEAN_ANOMALY": 275.0555,
    "EPHEMERIS_TYPE": 0,
    "CLASSIFICATION_TYPE": "U",
    "NORAD_CAT_ID": 49749,
    "ELEMENT_SET_NO": 999,
    "REV_AT_EPOCH": 21765,
    "BSTAR": 9.4456e-05,
    "MEAN_MOTION_DOT": 1.216e-05,
    "MEAN_MOTION_DDOT": 0.0,
    "TLE_LINE1": "1 49749U 21115AB  25315.29405665  .00001216  00000+0  94456-4 0  9997",
    "TLE_LINE2": "2 49749  53.2174 320.8593 0001552  85.0614 275.0555 15.08847878217650",
    "COMMENT": "Grouped by shell and plane from TLE"
  },
  {
    "OBJECT_NAME": "STARLINK-3236",
    "OBJECT_ID": "21115AC",
    "EPOCH": "2025-11-11T06:58:06.751488",
    "MEAN_MOTION": 15.08841816,
    "ECCENTRICITY": 0.0001505,
    "INCLINATION": 53.2187,
    "RA_OF_ASC_NODE": 320.6445,
    "ARG_OF_PERICENTER": 90.1301,
    "MEAN_ANOMALY": 269.9864,
    "EPHEMERIS_TYPE": 0,
    "CLASSIFICATION_TYPE": "U",
    "NORAD_CAT_ID": 49750,
    "ELEMENT_SET_NO": 999,
    "REV_AT_EPOCH": 21766,
    "BSTAR": 6.2712e-05,
    "MEAN_MOTION_DOT": 7.1e-06,
    "MEAN_MOTION_DDOT": 0.0,
    "TLE_LINE1": "1 49750U 21115AC  25315.29035592  .00000710  00000+0  62712-4 0  9995",
    "TLE_LINE2": "2 49750  53.2187 320.6445 0001505  90.1301 269.9864 15.08841816217660",
    "COMMENT": "Grouped by shell and plane from TLE"
  },
  {
    "OBJECT_NAME": "STARLINK-3229",
    "OBJECT_ID": "21115AD",
    "EPOCH": "2025-11-11T06:30:13.257792",
    "MEAN_MOTION": 15.08847146,
    "ECCENTRICITY": 0.0001464,
    "INCLINATION": 53.2184,
    "RA_OF_ASC_NODE": 320.646,
    "ARG_OF_PERICENTER": 89.6982,
    "MEAN_ANOMALY": 270.4178,
    "EPHEMERIS_TYPE": 0,
    "CLASSIFICATION_TYPE": "U",
    "NORAD_CAT_ID": 49751,
    "ELEMENT_SET_NO": 999,
    "REV_AT_EPOCH": 21766,
    "BSTAR": 0.00012417,
    "MEAN_MOTION_DOT": 1.689e-05,
    "MEAN_MOTION_DDOT": 0.0,
    "TLE_LINE1": "1 49751U 21115AD  25315.27098678  .00001689  00000+0  12417-3 0  9990",
    "TLE_LINE2": "2 49751  53.2184 320.6460 0001464  89.6982 270.4178 15.08847146217664",
    "COMMENT": "Grouped by shell and plane from TLE"
  }
]